ORBCOMM FM37 [-]        
1 33064U 08031E   24074.89545275  .00002008  00000+0  31776-3 0  9996
2 33064  48.4419   0.7913 0005933 212.5309 260.4351 14.76043359846113
ORBCOMM FM40 [-]        
1 33065U 08031F   24075.14953448  .00002600  00000+0  39130-3 0  9991
2 33065  48.4441 349.4936 0007294 220.8982 281.6401 14.77297108846629
VESSELSAT 1 [-]         
1 37840U 11058C   24075.07331778  .00000410  00000+0  79538-4 0  9991
2 37840  19.9627 351.4889 0013773 176.7841 183.2653 14.11124767641600
ORBCOMM FM109 [+]       
1 40086U 14040A   24074.84426915  .00001209  00000+0  30728-3 0  9997
2 40086  47.0053  22.7869 0002165 347.7213  12.3619 14.56374701514060
ORBCOMM FM107 [+]       
1 40087U 14040B   24074.26128047  .00001260  00000+0  31869-3 0  9993
2 40087  47.0070  26.4916 0002036 314.2497  45.8221 14.56375318514058
ORBCOMM FM106 [-]       
1 40088U 14040C   24074.86291426  .00001628  00000+0  32164-3 0  9999
2 40088  47.0591 240.9656 0017302  97.1331 263.1526 14.66721048516193
ORBCOMM FM104 [-]       
1 40090U 14040E   24074.93016880  .00000906  00000+0  24691-3 0  9993
2 40090  47.0062  51.6331 0017906 269.0237  90.8596 14.54936277513807
